0 THORAD AGENA D DEB
1 04681U 70025BE  13282.39266049  .00000599  00000-0  16673-2 0  1516
2 04681 099.8293 084.4327 0243894 230.0704 158.2841 13.06891049 70013
0 THORAD AGENA D DEB
1 04681U 70025BE  13287.37623422  .00000008  00000-0  12552-3 0  1531
2 04681 099.8300 088.9965 0244002 218.7182 205.0135 13.06900750 70662
0 THORAD AGENA D DEB
1 04681U 70025BE  13289.43505632 -.00000137  00000-0 -25146-3 0  1541
2 04681 099.8303 090.8819 0244024 214.0256 171.4119 13.06902102 70931
0 THORAD AGENA D DEB
1 04681U 70025BE  13291.98229015  .00000043  00000-0  21734-3 0  1556
2 04681 099.8305 093.2147 0244051 208.2133 275.7342 13.06900992 71261
0 THORAD AGENA D DEB
1 04681U 70025BE  13294.05006539  .00000335  00000-0  97657-3 0  1563
2 04681 099.8305 095.1083 0244078 203.4938 284.2827 13.06899538 71536
